ISS OBJECT XY           
1 66912U 98067XY  26073.18171476  .00116764  00000+0  11718-2 0  9991
2 66912  51.6271  44.3989 0003432 116.7490 243.3857 15.64616035 15853
KNACKSAT-2              
1 67683U 98067XZ  26073.23485979  .00046420  00000+0  75326-3 0  9996
2 67683  51.6313  49.2585 0009394 201.9714 158.0875 15.52225920  5498
GXIBA-1                 
1 67684U 98067YA  26073.19973932  .00100394  00000+0  14477-2 0  9993
2 67684  51.6308  49.0237 0011629 191.1014 168.9722 15.55114110  5494
CORAL                   
1 67685U 98067YB  26073.22929523  .00052293  00000+0  83396-3 0  9996
2 67685  51.6308  49.2217 0011399 198.3044 161.7538 15.52633446  5492
ISS OBJECT YC           
1 67686U 98067YC  26073.09338906  .00061199  00000+0  95345-3 0  9993
2 67686  51.6311  49.8165 0008241 166.3513 193.7701 15.53248066  5479
LEOPARD                 
1 67687U 98067YD  26073.29634492  .00050978  00000+0  82029-3 0  9993
2 67687  51.6313  48.9218 0008106 170.7271 189.3870 15.52431630  5424
ISS OBJECT YE           
1 67688U 98067YE  26073.22535444  .00059603  00000+0  93825-3 0  9994
2 67688  51.6309  49.1976 0008108 167.6163 192.5028 15.52973909  5411
CREW DRAGON 12          
1 67796U 26031A   26072.70791847  .00011780  00000+0  22432-3 0  9999
2 67796  51.6324  52.4887 0007884 189.2977 170.7866 15.48633802556856
