CCSDS_OMM_VERS = 2.0
CREATION_DATE  = 
ORIGINATOR     = 

OBJECT_NAME    = ISS OBJECT XY
OBJECT_ID      = 1998-067XY
CENTER_NAME    = EARTH
REF_FRAME      = TEME
TIME_SYSTEM    = UTC
MEAN_ELEMENT_THEORY = SGP/SGP4

EPOCH          = 2026-03-14T04:21:40.155264
MEAN_MOTION    = 15.64616035
ECCENTRICITY   = .00034324
INCLINATION    = 51.6271
RA_OF_ASC_NODE = 44.3989
ARG_OF_PERICENTER = 116.7490
MEAN_ANOMALY   = 243.3857

EPHEMERIS_TYPE = 0
CLASSIFICATION_TYPE = U
NORAD_CAT_ID   = 66912
ELEMENT_SET_NO = 999
REV_AT_EPOCH   = 1585
BSTAR          = .11718451E-2
MEAN_MOTION_DOT = .116764E-2
MEAN_MOTION_DDOT = 0

CCSDS_OMM_VERS = 2.0
CREATION_DATE  = 
ORIGINATOR     = 

OBJECT_NAME    = KNACKSAT-2
OBJECT_ID      = 1998-067XZ
CENTER_NAME    = EARTH
REF_FRAME      = TEME
TIME_SYSTEM    = UTC
MEAN_ELEMENT_THEORY = SGP/SGP4

EPOCH          = 2026-03-14T05:38:11.885856
MEAN_MOTION    = 15.52225920
ECCENTRICITY   = .00093942
INCLINATION    = 51.6313
RA_OF_ASC_NODE = 49.2585
ARG_OF_PERICENTER = 201.9714
MEAN_ANOMALY   = 158.0875

EPHEMERIS_TYPE = 0
CLASSIFICATION_TYPE = U
NORAD_CAT_ID   = 67683
ELEMENT_SET_NO = 999
REV_AT_EPOCH   = 549
BSTAR          = .75325904E-3
MEAN_MOTION_DOT = .4642E-3
MEAN_MOTION_DDOT = 0

CCSDS_OMM_VERS = 2.0
CREATION_DATE  = 
ORIGINATOR     = 

OBJECT_NAME    = GXIBA-1
OBJECT_ID      = 1998-067YA
CENTER_NAME    = EARTH
REF_FRAME      = TEME
TIME_SYSTEM    = UTC
MEAN_ELEMENT_THEORY = SGP/SGP4

EPOCH          = 2026-03-14T04:47:37.477248
MEAN_MOTION    = 15.55114110
ECCENTRICITY   = .00116291
INCLINATION    = 51.6308
RA_OF_ASC_NODE = 49.0237
ARG_OF_PERICENTER = 191.1014
MEAN_ANOMALY   = 168.9722

EPHEMERIS_TYPE = 0
CLASSIFICATION_TYPE = U
NORAD_CAT_ID   = 67684
ELEMENT_SET_NO = 999
REV_AT_EPOCH   = 549
BSTAR          = .14476585E-2
MEAN_MOTION_DOT = .100394E-2
MEAN_MOTION_DDOT = 0

CCSDS_OMM_VERS = 2.0
CREATION_DATE  = 
ORIGINATOR     = 

OBJECT_NAME    = CORAL
OBJECT_ID      = 1998-067YB
CENTER_NAME    = EARTH
REF_FRAME      = TEME
TIME_SYSTEM    = UTC
MEAN_ELEMENT_THEORY = SGP/SGP4

EPOCH          = 2026-03-14T05:30:11.107872
MEAN_MOTION    = 15.52633446
ECCENTRICITY   = .00113996
INCLINATION    = 51.6308
RA_OF_ASC_NODE = 49.2217
ARG_OF_PERICENTER = 198.3044
MEAN_ANOMALY   = 161.7538

EPHEMERIS_TYPE = 0
CLASSIFICATION_TYPE = U
NORAD_CAT_ID   = 67685
ELEMENT_SET_NO = 999
REV_AT_EPOCH   = 549
BSTAR          = .83396043E-3
MEAN_MOTION_DOT = .52293E-3
MEAN_MOTION_DDOT = 0

CCSDS_OMM_VERS = 2.0
CREATION_DATE  = 
ORIGINATOR     = 

OBJECT_NAME    = ISS OBJECT YC
OBJECT_ID      = 1998-067YC
CENTER_NAME    = EARTH
REF_FRAME      = TEME
TIME_SYSTEM    = UTC
MEAN_ELEMENT_THEORY = SGP/SGP4

EPOCH          = 2026-03-14T02:14:28.814784
MEAN_MOTION    = 15.53248066
ECCENTRICITY   = .00082413
INCLINATION    = 51.6311
RA_OF_ASC_NODE = 49.8165
ARG_OF_PERICENTER = 166.3513
MEAN_ANOMALY   = 193.7701

EPHEMERIS_TYPE = 0
CLASSIFICATION_TYPE = U
NORAD_CAT_ID   = 67686
ELEMENT_SET_NO = 999
REV_AT_EPOCH   = 547
BSTAR          = .95345435E-3
MEAN_MOTION_DOT = .61199E-3
MEAN_MOTION_DDOT = 0

CCSDS_OMM_VERS = 2.0
CREATION_DATE  = 
ORIGINATOR     = 

OBJECT_NAME    = LEOPARD
OBJECT_ID      = 1998-067YD
CENTER_NAME    = EARTH
REF_FRAME      = TEME
TIME_SYSTEM    = UTC
MEAN_ELEMENT_THEORY = SGP/SGP4

EPOCH          = 2026-03-14T07:06:44.201088
MEAN_MOTION    = 15.52431630
ECCENTRICITY   = .0008106
INCLINATION    = 51.6313
RA_OF_ASC_NODE = 48.9218
ARG_OF_PERICENTER = 170.7271
MEAN_ANOMALY   = 189.3870

EPHEMERIS_TYPE = 0
CLASSIFICATION_TYPE = U
NORAD_CAT_ID   = 67687
ELEMENT_SET_NO = 999
REV_AT_EPOCH   = 542
BSTAR          = .82028857E-3
MEAN_MOTION_DOT = .50978E-3
MEAN_MOTION_DDOT = 0

CCSDS_OMM_VERS = 2.0
CREATION_DATE  = 
ORIGINATOR     = 

OBJECT_NAME    = ISS OBJECT YE
OBJECT_ID      = 1998-067YE
CENTER_NAME    = EARTH
REF_FRAME      = TEME
TIME_SYSTEM    = UTC
MEAN_ELEMENT_THEORY = SGP/SGP4

EPOCH          = 2026-03-14T05:24:30.623616
MEAN_MOTION    = 15.52973909
ECCENTRICITY   = .00081089
INCLINATION    = 51.6309
RA_OF_ASC_NODE = 49.1976
ARG_OF_PERICENTER = 167.6163
MEAN_ANOMALY   = 192.5028

EPHEMERIS_TYPE = 0
CLASSIFICATION_TYPE = U
NORAD_CAT_ID   = 67688
ELEMENT_SET_NO = 999
REV_AT_EPOCH   = 541
BSTAR          = .93824643E-3
MEAN_MOTION_DOT = .59603E-3
MEAN_MOTION_DDOT = 0

CCSDS_OMM_VERS = 2.0
CREATION_DATE  = 
ORIGINATOR     = 

OBJECT_NAME    = CREW DRAGON 12
OBJECT_ID      = 2026-031A
CENTER_NAME    = EARTH
REF_FRAME      = TEME
TIME_SYSTEM    = UTC
MEAN_ELEMENT_THEORY = SGP/SGP4

EPOCH          = 2026-03-13T16:59:24.155808
MEAN_MOTION    = 15.48633802
ECCENTRICITY   = .00078842
INCLINATION    = 51.6324
RA_OF_ASC_NODE = 52.4887
ARG_OF_PERICENTER = 189.2977
MEAN_ANOMALY   = 170.7866

EPHEMERIS_TYPE = 0
CLASSIFICATION_TYPE = U
NORAD_CAT_ID   = 67796
ELEMENT_SET_NO = 999
REV_AT_EPOCH   = 55685
BSTAR          = .22432227E-3
MEAN_MOTION_DOT = .1178E-3
MEAN_MOTION_DDOT = 0

